{"type": "FeatureCollection", "features": [ {"type": "Feature", "properties": {"norad_id": 34001, "name": "COSMOS 2251 DEB", "group": "cosmos-2251-debris", "lat": -56.425575178890085, "lon": -116.29589870492175, "alt_km": 765.2841297736386, "timestamp": "2025-12-19T10:50:01.594978+00:00", "meta": {"OBJECT_NAME": "COSMOS 2251 DEB", "OBJECT_ID": "1993-036GL", "EPOCH": "2025-12-18T20:22:47.672832", "MEAN_MOTION": 14.37105661, "ECCENTRICITY": 0.00202248, "INCLINATION": 74.0388, "RA_OF_ASC_NODE": 270.3535, "ARG_OF_PERICENTER": 350.2279, "MEAN_ANOMALY": 75.4351, "EPHEMERIS_TYPE": 0, "CLASSIFICATION_TYPE": "U", "NORAD_CAT_ID": 34001, "ELEMENT_SET_NO": 999, "REV_AT_EPOCH": 88234, "BSTAR": 0.00014649347, "MEAN_MOTION_DOT": 4.1e-06, "MEAN_MOTION_DDOT": 0}, "tle": {"line1": "1 34001U 93036GL  25352.84916288  .00000410  00000+0  14649-3 0  9993", "line2": "2 34001  74.0388 270.3535 0020224 350.2279  75.4351 14.37105661882347"}}, "geometry": {"type": "Point", "coordinates": [-116.29589870492175, -56.425575178890085]}}, {"type": "Feature", "properties": {"norad_id": 34003, "name": "COSMOS 2251 DEB", "group": "cosmos-2251-debris", "lat": -11.836074041918362, "lon": -89.58264482411798, "alt_km": 789.2306116217351, "timestamp": "2025-12-19T10:50:01.594988+00:00", "meta": {"OBJECT_NAME": "COSMOS 2251 DEB", "OBJECT_ID": "1993-036GN", "EPOCH": "2025-12-18T21:00:51.472800", "MEAN_MOTION": 13.84184634, "ECCENTRICITY": 0.02748454, "INCLINATION": 74.0781, "RA_OF_ASC_NODE": 274.8157, "ARG_OF_PERICENTER": 25.4118, "MEAN_ANOMALY": 336.0231, "EPHEMERIS_TYPE": 0, "CLASSIFICATION_TYPE": "U", "NORAD_CAT_ID": 34003, "ELEMENT_SET_NO": 999, "REV_AT_EPOCH": 84510, "BSTAR": 0.0015140525, "MEAN_MOTION_DOT": 2.24e-05, "MEAN_MOTION_DDOT": 0}, "tle": {"line1": "1 34003U 93036GN  25352.87559575  .00002240  00000+0  15141-2 0  9990", "line2": "2 34003  74.0781 274.8157 0274845  25.4118 336.0231 13.84184634845102"}}, "geometry": {"type": "Point", "coordinates": [-89.58264482411798, -11.836074041918362]}}, {"type": "Feature", "properties": {"norad_id": 34004, "name": "COSMOS 2251 DEB", "group": "cosmos-2251-debris", "lat": 61.053263750901664, "lon": 89.35435409831555, "alt_km": 745.0726985652973, "timestamp": "2025-12-19T10:50:01.594998+00:00", "meta": {"OBJECT_NAME": "COSMOS 2251 DEB", "OBJECT_ID": "1993-036GP", "EPOCH": "2025-12-18T22:42:30.702816", "MEAN_MOTION": 14.49064219, "ECCENTRICITY": 0.00334399, "INCLINATION": 74.0353, "RA_OF_ASC_NODE": 301.4708, "ARG_OF_PERICENTER": 312.9506, "MEAN_ANOMALY": 46.885, "EPHEMERIS_TYPE": 0, "CLASSIFICATION_TYPE": "U", "NORAD_CAT_ID": 34004, "ELEMENT_SET_NO": 999, "REV_AT_EPOCH": 88120, "BSTAR": 0.00092131357, "MEAN_MOTION_DOT": 3.497e-05, "MEAN_MOTION_DDOT": 0}, "tle": {"line1": "1 34004U 93036GP  25352.94618869  .00003497  00000+0  92131-3 0  9991", "line2": "2 34004  74.0353 301.4708 0033439 312.9506  46.8850 14.49064219881206"}}, "geometry": {"type": "Point", "coordinates": [89.35435409831555, 61.053263750901664]}}, {"type": "Feature", "properties": {"norad_id": 34005, "name": "COSMOS 2251 DEB", "group": "cosmos-2251-debris", "lat": 2.8188617868042747, "lon": 20.440161596669256, "alt_km": 771.4371794767676, "timestamp": "2025-12-19T10:50:01.595009+00:00", "meta": {"OBJECT_NAME": "COSMOS 2251 DEB", "OBJECT_ID": "1993-036GQ", "EPOCH": "2025-12-18T22:52:10.087392", "MEAN_MOTION": 14.40308674, "ECCENTRICITY": 0.00210533, "INCLINATION": 74.0438, "RA_OF_ASC_NODE": 202.1681, "ARG_OF_PERICENTER": 319.3228, "MEAN_ANOMALY": 153.981, "EPHEMERIS_TYPE": 0, "CLASSIFICATION_TYPE": "U", "NORAD_CAT_ID": 34005, "ELEMENT_SET_NO": 999, "REV_AT_EPOCH": 88468, "BSTAR": 8.7805862e-05, "MEAN_MOTION_DOT": 2.52e-06, "MEAN_MOTION_DDOT": 0}, "tle": {"line1": "1 34005U 93036GQ  25352.95289453  .00000252  00000+0  87806-4 0  9996", "line2": "2 34005  74.0438 202.1681 0021053 319.3228 153.9810 14.40308674884687"}}, "geometry": {"type": "Point", "coordinates": [20.440161596669256, 2.8188617868042747]}}, {"type": "Feature", "properties": {"norad_id": 34006, "name": "COSMOS 2251 DEB", "group": "cosmos-2251-debris", "lat": -36.2007231164586, "lon": 117.68472219912161, "alt_km": 589.997683069174, "timestamp": "2025-12-19T10:50:01.595020+00:00", "meta": {"OBJECT_NAME": "COSMOS 2251 DEB", "OBJECT_ID": "1993-036GR", "EPOCH": "2025-12-18T03:40:23.640096", "MEAN_MOTION": 14.95111084, "ECCENTRICITY": 0.00113796, "INCLINATION": 74.0524, "RA_OF_ASC_NODE": 132.3805, "ARG_OF_PERICENTER": 71.3364, "MEAN_ANOMALY": 105.5146, "EPHEMERIS_TYPE": 0, "CLASSIFICATION_TYPE": "U", "NORAD_CAT_ID": 34006, "ELEMENT_SET_NO": 999, "REV_AT_EPOCH": 88749, "BSTAR": 0.0025744949, "MEAN_MOTION_DOT": 0.00028351, "MEAN_MOTION_DDOT": 0}, "tle": {"line1": "1 34006U 93036GR  25352.15305139  .00028351  00000+0  25745-2 0  9991", "line2": "2 34006  74.0524 132.3805 0011379  71.3364 105.5146 14.95111084887496"}}, "geometry": {"type": "Point", "coordinates": [117.68472219912161, -36.2007231164586]}}, {"type": "Feature", "properties": {"norad_id": 34007, "name": "COSMOS 2251 DEB", "group": "cosmos-2251-debris", "lat": -65.88718613170296, "lon": -166.21064435628227, "alt_km": 709.9782897316609, "timestamp": "2025-12-19T10:50:01.595029+00:00", "meta": {"OBJECT_NAME": "COSMOS 2251 DEB", "OBJECT_ID": "1993-036GS", "EPOCH": "2025-12-18T09:06:19.974240", "MEAN_MOTION": 14.64824644, "ECCENTRICITY": 0.00442321, "INCLINATION": 74.0187, "RA_OF_ASC_NODE": 336.0395, "ARG_OF_PERICENTER": 109.1353, "MEAN_ANOMALY": 251.4611, "EPHEMERIS_TYPE": 0, "CLASSIFICATION_TYPE": "U", "NORAD_CAT_ID": 34007, "ELEMENT_SET_NO": 999, "REV_AT_EPOCH": 89162, "BSTAR": 0.00054099577, "MEAN_MOTION_DOT": 2.899e-05, "MEAN_MOTION_DDOT": 0}, "tle": {"line1": "1 34007U 93036GS  25352.37939785  .00002899  00000+0  54100-3 0  9993", "line2": "2 34007  74.0187 336.0395 0044232 109.1353 251.4611 14.64824644891628"}}, "geometry": {"type": "Point", "coordinates": [-166.21064435628227, -65.88718613170296]}}, {"type": "Feature", "properties": {"norad_id": 34008, "name": "COSMOS 2251 DEB", "group": "cosmos-2251-debris", "lat": -73.99681638128563, "lon": -128.27944128035105, "alt_km": 774.9967197368296, "timestamp": "2025-12-19T10:50:01.595040+00:00", "meta": {"OBJECT_NAME": "COSMOS 2251 DEB", "OBJECT_ID": "1993-036GT", "EPOCH": "2025-12-18T21:56:31.326144", "MEAN_MOTION": 14.33150405, "ECCENTRICITY": 0.00245236, "INCLINATION": 74.0344, "RA_OF_ASC_NODE": 319.2336, "ARG_OF_PERICENTER": 313.4904, "MEAN_ANOMALY": 67.3935, "EPHEMERIS_TYPE": 0, "CLASSIFICATION_TYPE": "U", "NORAD_CAT_ID": 34008, "ELEMENT_SET_NO": 999, "REV_AT_EPOCH": 88053, "BSTAR": 9.2544385e-05, "MEAN_MOTION_DOT": 2.29e-06, "MEAN_MOTION_DDOT": 0}, "tle": {"line1": "1 34008U 93036GT  25352.91425146  .00000229  00000+0  92544-4 0  9995", "line2": "2 34008  74.0344 319.2336 0024523 313.4904  67.3935 14.33150405880539"}}, "geometry": {"type": "Point", "coordinates": [-128.27944128035105, -73.99681638128563]}}, {"type": "Feature", "properties": {"norad_id": 34009, "name": "COSMOS 2251 DEB", "group": "cosmos-2251-debris", "lat": -48.75056983508962, "lon": -54.378473452319525, "alt_km": 785.3029247438035, "timestamp": "2025-12-19T10:50:01.595050+00:00", "meta": {"OBJECT_NAME": "COSMOS 2251 DEB", "OBJECT_ID": "1993-036GU", "EPOCH": "2025-12-18T23:36:23.423616", "MEAN_MOTION": 14.33227104, "ECCENTRICITY": 0.00267486, "INCLINATION": 74.0373, "RA_OF_ASC_NODE": 325.5255, "ARG_OF_PERICENTER": 33.2784, "MEAN_ANOMALY": 22.9399, "EPHEMERIS_TYPE": 0, "CLASSIFICATION_TYPE": "U", "NORAD_CAT_ID": 34009, "ELEMENT_SET_NO": 999, "REV_AT_EPOCH": 88035, "BSTAR": 0.00011639217, "MEAN_MOTION_DOT": 2.95e-06, "MEAN_MOTION_DDOT": 0}, "tle": {"line1": "1 34009U 93036GU  25352.98360444  .00000295  00000+0  11639-3 0  9990", "line2": "2 34009  74.0373 325.5255 0026748  33.2784  22.9399 14.33227104880358"}}, "geometry": {"type": "Point", "coordinates": [-54.378473452319525, -48.75056983508962]}}, {"type": "Feature", "properties": {"norad_id": 34010, "name": "COSMOS 2251 DEB", "group": "cosmos-2251-debris", "lat": 72.06762014210517, "lon": 26.760130329868744, "alt_km": 496.79542115406, "timestamp": "2025-12-19T10:50:01.595060+00:00", "meta": {"OBJECT_NAME": "COSMOS 2251 DEB", "OBJECT_ID": "1993-036GV", "EPOCH": "2025-12-18T20:11:04.855488", "MEAN_MOTION": 15.19694993, "ECCENTRICITY": 0.00045051, "INCLINATION": 73.9994, "RA_OF_ASC_NODE": 270.5054, "ARG_OF_PERICENTER": 60.785, "MEAN_ANOMALY": 299.3798, "EPHEMERIS_TYPE": 0, "CLASSIFICATION_TYPE": "U", "NORAD_CAT_ID": 34010, "ELEMENT_SET_NO": 999, "REV_AT_EPOCH": 89378, "BSTAR": 0.0032051215, "MEAN_MOTION_DOT": 0.0006909, "MEAN_MOTION_DDOT": 0}, "tle": {"line1": "1 34010U 93036GV  25352.84102842  .00069090  00000+0  32051-2 0  9991", "line2": "2 34010  73.9994 270.5054 0004505  60.7850 299.3798 15.19694993893782"}}, "geometry": {"type": "Point", "coordinates": [26.760130329868744, 72.06762014210517]}}, {"type": "Feature", "properties": {"norad_id": 34011, "name": "COSMOS 2251 DEB", "group": "cosmos-2251-debris", "lat": 17.880048433750133, "lon": 132.3882646133833, "alt_km": 766.106333640133, "timestamp": "2025-12-19T10:50:01.595070+00:00", "meta": {"OBJECT_NAME": "COSMOS 2251 DEB", "OBJECT_ID": "1993-036GW", "EPOCH": "2025-12-18T22:26:03.717600", "MEAN_MOTION": 14.41797729, "ECCENTRICITY": 0.00359966, "INCLINATION": 74.0143, "RA_OF_ASC_NODE": 318.6528, "ARG_OF_PERICENTER": 40.4003, "MEAN_ANOMALY": 319.9816, "EPHEMERIS_TYPE": 0, "CLASSIFICATION_TYPE": "U", "NORAD_CAT_ID": 34011, "ELEMENT_SET_NO": 999, "REV_AT_EPOCH": 88005, "BSTAR": 0.00057181891, "MEAN_MOTION_DOT": 1.857e-05, "MEAN_MOTION_DDOT": 0}, "tle": {"line1": "1 34011U 93036GW  25352.93476525  .00001857  00000+0  57182-3 0  9994", "line2": "2 34011  74.0143 318.6528 0035996  40.4003 319.9816 14.41797729880055"}}, "geometry": {"type": "Point", "coordinates": [132.3882646133833, 17.880048433750133]}}]}